[{"OBJECT_NAME":"ONEWEB-0371","OBJECT_ID":"2021-090U","EPOCH":"2025-12-04T13:38:08.465856","MEAN_MOTION":13.19723745,"ECCENTRICITY":0.0001807,"INCLINATION":87.9199,"RA_OF_ASC_NODE":343.6904,"ARG_OF_PERICENTER":86.5029,"MEAN_ANOMALY":273.6311,"EPHEMERIS_TYPE":0,"CLASSIFICATION_TYPE":"U","NORAD_CAT_ID":49297,"ELEMENT_SET_NO":999,"REV_AT_EPOCH":20078,"BSTAR":-8.1161e-6,"MEAN_MOTION_DOT":1.0e-7,"MEAN_MOTION_DDOT":0},{"OBJECT_NAME":"ONEWEB-0372","OBJECT_ID":"2021-090V","EPOCH":"2025-12-04T11:11:34.291968","MEAN_MOTION":13.20773643,"ECCENTRICITY":0.0001916,"INCLINATION":87.9186,"RA_OF_ASC_NODE":313.2745,"ARG_OF_PERICENTER":83.8078,"MEAN_ANOMALY":276.3273,"EPHEMERIS_TYPE":0,"CLASSIFICATION_TYPE":"U","NORAD_CAT_ID":49298,"ELEMENT_SET_NO":999,"REV_AT_EPOCH":20413,"BSTAR":-0.00031794,"MEAN_MOTION_DOT":-1.16e-6,"MEAN_MOTION_DDOT":0},{"OBJECT_NAME":"ONEWEB-0373","OBJECT_ID":"2021-090W","EPOCH":"2025-12-04T15:28:36.005088","MEAN_MOTION":13.20773611,"ECCENTRICITY":0.0001735,"INCLINATION":87.9183,"RA_OF_ASC_NODE":313.2524,"ARG_OF_PERICENTER":85.9643,"MEAN_ANOMALY":274.1688,"EPHEMERIS_TYPE":0,"CLASSIFICATION_TYPE":"U","NORAD_CAT_ID":49299,"ELEMENT_SET_NO":999,"REV_AT_EPOCH":20534,"BSTAR":3.0903e-5,"MEAN_MOTION_DOT":2.6e-7,"MEAN_MOTION_DDOT":0},{"OBJECT_NAME":"ONEWEB-0374","OBJECT_ID":"2021-090X","EPOCH":"2025-12-04T11:39:11.468160","MEAN_MOTION":13.14504556,"ECCENTRICITY":0.0001931,"INCLINATION":87.8985,"RA_OF_ASC_NODE":328.4875,"ARG_OF_PERICENTER":104.5813,"MEAN_ANOMALY":255.5531,"EPHEMERIS_TYPE":0,"CLASSIFICATION_TYPE":"U","NORAD_CAT_ID":49300,"ELEMENT_SET_NO":999,"REV_AT_EPOCH":20198,"BSTAR":0.00023394,"MEAN_MOTION_DOT":1.0e-6,"MEAN_MOTION_DDOT":0},{"OBJECT_NAME":"ONEWEB-0375","OBJECT_ID":"2021-090Y","EPOCH":"2025-12-04T18:00:02.000160","MEAN_MOTION":13.2078122,"ECCENTRICITY":0.0001823,"INCLINATION":87.9181,"RA_OF_ASC_NODE":313.2116,"ARG_OF_PERICENTER":100.9324,"MEAN_ANOMALY":98.6998,"EPHEMERIS_TYPE":0,"CLASSIFICATION_TYPE":"U","NORAD_CAT_ID":49301,"ELEMENT_SET_NO":999,"REV_AT_EPOCH":503,"BSTAR":0.079229,"MEAN_MOTION_DOT":0.00032346,"MEAN_MOTION_DDOT":0},{"OBJECT_NAME":"ONEWEB-0376","OBJECT_ID":"2021-090Z","EPOCH":"2025-12-04T13:35:51.876096","MEAN_MOTION":13.19726842,"ECCENTRICITY":0.0001946,"INCLINATION":87.9205,"RA_OF_ASC_NODE":343.6778,"ARG_OF_PERICENTER":86.8247,"MEAN_ANOMALY":273.3108,"EPHEMERIS_TYPE":0,"CLASSIFICATION_TYPE":"U","NORAD_CAT_ID":49302,"ELEMENT_SET_NO":999,"REV_AT_EPOCH":20078,"BSTAR":8.1606e-5,"MEAN_MOTION_DOT":4.6e-7,"MEAN_MOTION_DDOT":0},{"OBJECT_NAME":"ONEWEB-0377","OBJECT_ID":"2021-090AA","EPOCH":"2025-12-04T09:22:53.588064","MEAN_MOTION":13.20773313,"ECCENTRICITY":0.0001587,"INCLINATION":87.9193,"RA_OF_ASC_NODE":313.2836,"ARG_OF_PERICENTER":83.6457,"MEAN_ANOMALY":276.4857,"EPHEMERIS_TYPE":0,"CLASSIFICATION_TYPE":"U","NORAD_CAT_ID":49303,"ELEMENT_SET_NO":999,"REV_AT_EPOCH":20480,"BSTAR":-5.102e-5,"MEAN_MOTION_DOT":-8.0e-8,"MEAN_MOTION_DDOT":0},{"OBJECT_NAME":"ONEWEB-0378","OBJECT_ID":"2021-090AB","EPOCH":"2025-12-04T15:21:59.193216","MEAN_MOTION":13.20769681,"ECCENTRICITY":0.0001789,"INCLINATION":87.9191,"RA_OF_ASC_NODE":313.2484,"ARG_OF_PERICENTER":89.02,"MEAN_ANOMALY":271.1139,"EPHEMERIS_TYPE":0,"CLASSIFICATION_TYPE":"U","NORAD_CAT_ID":49304,"ELEMENT_SET_NO":999,"REV_AT_EPOCH":20410,"BSTAR":0.00014589,"MEAN_MOTION_DOT":7.2e-7,"MEAN_MOTION_DDOT":0},{"OBJECT_NAME":"ONEWEB-0379","OBJECT_ID":"2021-090AC","EPOCH":"2025-12-04T11:32:19.288320","MEAN_MOTION":13.1450059,"ECCENTRICITY":0.0001841,"INCLINATION":87.8985,"RA_OF_ASC_NODE":328.4975,"ARG_OF_PERICENTER":90.5302,"MEAN_ANOMALY":269.6039,"EPHEMERIS_TYPE":0,"CLASSIFICATION_TYPE":"U","NORAD_CAT_ID":49305,"ELEMENT_SET_NO":999,"REV_AT_EPOCH":20198,"BSTAR":-0.00021229,"MEAN_MOTION_DOT":-6.6e-7,"MEAN_MOTION_DDOT":0},{"OBJECT_NAME":"ONEWEB-0380","OBJECT_ID":"2021-090AD","EPOCH":"2025-12-04T13:31:19.229664","MEAN_MOTION":13.19723927,"ECCENTRICITY":0.000159,"INCLINATION":87.9198,"RA_OF_ASC_NODE":343.7011,"ARG_OF_PERICENTER":94.0282,"MEAN_ANOMALY":266.1032,"EPHEMERIS_TYPE":0,"CLASSIFICATION_TYPE":"U","NORAD_CAT_ID":49306,"ELEMENT_SET_NO":999,"REV_AT_EPOCH":20075,"BSTAR":-7.9784e-5,"MEAN_MOTION_DOT":-1.9e-7,"MEAN_MOTION_DDOT":0},{"OBJECT_NAME":"ONEWEB-0381","OBJECT_ID":"2021-090AE","EPOCH":"2025-12-04T11:07:14.191680","MEAN_MOTION":13.20769309,"ECCENTRICITY":0.0001673,"INCLINATION":87.9191,"RA_OF_ASC_NODE":313.2722,"ARG_OF_PERICENTER":91.7246,"MEAN_ANOMALY":268.4079,"EPHEMERIS_TYPE":0,"CLASSIFICATION_TYPE":"U","NORAD_CAT_ID":49307,"ELEMENT_SET_NO":999,"REV_AT_EPOCH":20412,"BSTAR":-4.6598e-5,"MEAN_MOTION_DOT":-6.0e-8,"MEAN_MOTION_DDOT":0},{"OBJECT_NAME":"ONEWEB-0382","OBJECT_ID":"2021-090AF","EPOCH":"2025-12-04T10:49:03.428832","MEAN_MOTION":13.20774005,"ECCENTRICITY":0.0001793,"INCLINATION":87.9197,"RA_OF_ASC_NODE":313.27,"ARG_OF_PERICENTER":94.0487,"MEAN_ANOMALY":266.0851,"EPHEMERIS_TYPE":0,"CLASSIFICATION_TYPE":"U","NORAD_CAT_ID":49308,"ELEMENT_SET_NO":999,"REV_AT_EPOCH":20411,"BSTAR":2.5099e-5,"MEAN_MOTION_DOT":2.3e-7,"MEAN_MOTION_DDOT":0},{"OBJECT_NAME":"ONEWEB-0383","OBJECT_ID":"2021-090AG","EPOCH":"2025-12-04T11:23:12.922368","MEAN_MOTION":13.1450304,"ECCENTRICITY":0.0001891,"INCLINATION":87.899,"RA_OF_ASC_NODE":328.4829,"ARG_OF_PERICENTER":92.4965,"MEAN_ANOMALY":267.6381,"EPHEMERIS_TYPE":0,"CLASSIFICATION_TYPE":"U","NORAD_CAT_ID":49309,"ELEMENT_SET_NO":999,"REV_AT_EPOCH":20201,"BSTAR":-0.00043481,"MEAN_MOTION_DOT":-1.48e-6,"MEAN_MOTION_DDOT":0},{"OBJECT_NAME":"ONEWEB-0384","OBJECT_ID":"2021-090AH","EPOCH":"2025-12-04T10:39:49.667040","MEAN_MOTION":13.2079867,"ECCENTRICITY":0.0001977,"INCLINATION":87.9206,"RA_OF_ASC_NODE":313.3065,"ARG_OF_PERICENTER":100.6079,"MEAN_ANOMALY":259.5277,"EPHEMERIS_TYPE":0,"CLASSIFICATION_TYPE":"U","NORAD_CAT_ID":49310,"ELEMENT_SET_NO":999,"REV_AT_EPOCH":20412,"BSTAR":-5.3289e-6,"MEAN_MOTION_DOT":1.1e-7,"MEAN_MOTION_DDOT":0},{"OBJECT_NAME":"ONEWEB-0385","OBJECT_ID":"2021-090AJ","EPOCH":"2025-12-04T10:37:40.867104","MEAN_MOTION":13.20770821,"ECCENTRICITY":0.0001783,"INCLINATION":87.9184,"RA_OF_ASC_NODE":313.2774,"ARG_OF_PERICENTER":90.357,"MEAN_ANOMALY":269.7768,"EPHEMERIS_TYPE":0,"CLASSIFICATION_TYPE":"U","NORAD_CAT_ID":49311,"ELEMENT_SET_NO":999,"REV_AT_EPOCH":20409,"BSTAR":-0.00053847,"MEAN_MOTION_DOT":-2.06e-6,"MEAN_MOTION_DDOT":0},{"OBJECT_NAME":"ONEWEB-0386","OBJECT_ID":"2021-090AK","EPOCH":"2025-12-04T09:13:35.963328","MEAN_MOTION":13.20769467,"ECCENTRICITY":0.0001891,"INCLINATION":87.9197,"RA_OF_ASC_NODE":313.2723,"ARG_OF_PERICENTER":93.4272,"MEAN_ANOMALY":266.7077,"EPHEMERIS_TYPE":0,"CLASSIFICATION_TYPE":"U","NORAD_CAT_ID":49312,"ELEMENT_SET_NO":999,"REV_AT_EPOCH":20410,"BSTAR":0.00015489,"MEAN_MOTION_DOT":7.6e-7,"MEAN_MOTION_DDOT":0},{"OBJECT_NAME":"ONEWEB-0387","OBJECT_ID":"2021-090AL","EPOCH":"2025-12-04T16:07:16.074048","MEAN_MOTION":13.20785879,"ECCENTRICITY":0.0001653,"INCLINATION":87.9189,"RA_OF_ASC_NODE":313.2613,"ARG_OF_PERICENTER":88.8475,"MEAN_ANOMALY":271.2847,"EPHEMERIS_TYPE":0,"CLASSIFICATION_TYPE":"U","NORAD_CAT_ID":49313,"ELEMENT_SET_NO":999,"REV_AT_EPOCH":20414,"BSTAR":-0.0023543,"MEAN_MOTION_DOT":-9.44e-6,"MEAN_MOTION_DDOT":0},{"OBJECT_NAME":"ONEWEB-0388","OBJECT_ID":"2021-090AM","EPOCH":"2025-12-04T13:24:29.147616","MEAN_MOTION":13.1972342,"ECCENTRICITY":0.0001786,"INCLINATION":87.9188,"RA_OF_ASC_NODE":343.7035,"ARG_OF_PERICENTER":94.4447,"MEAN_ANOMALY":265.689,"EPHEMERIS_TYPE":0,"CLASSIFICATION_TYPE":"U","NORAD_CAT_ID":49314,"ELEMENT_SET_NO":999,"REV_AT_EPOCH":20074,"BSTAR":-1.4057e-5,"MEAN_MOTION_DOT":7.0e-8,"MEAN_MOTION_DDOT":0},{"OBJECT_NAME":"ONEWEB-0389","OBJECT_ID":"2021-132A","EPOCH":"2025-12-04T15:36:21.010752","MEAN_MOTION":13.17647139,"ECCENTRICITY":0.0001636,"INCLINATION":87.9123,"RA_OF_ASC_NODE":44.5546,"ARG_OF_PERICENTER":113.737,"MEAN_ANOMALY":246.3933,"EPHEMERIS_TYPE":0,"CLASSIFICATION_TYPE":"U","NORAD_CAT_ID":50469,"ELEMENT_SET_NO":999,"REV_AT_EPOCH":19246,"BSTAR":9.2403e-5,"MEAN_MOTION_DOT":4.9e-7,"MEAN_MOTION_DDOT":0},{"OBJECT_NAME":"ONEWEB-0390","OBJECT_ID":"2021-132B","EPOCH":"2025-12-04T15:38:47.374080","MEAN_MOTION":13.17648394,"ECCENTRICITY":0.0001512,"INCLINATION":87.9117,"RA_OF_ASC_NODE":44.557,"ARG_OF_PERICENTER":94.2327,"MEAN_ANOMALY":265.8977,"EPHEMERIS_TYPE":0,"CLASSIFICATION_TYPE":"U","NORAD_CAT_ID":50470,"ELEMENT_SET_NO":999,"REV_AT_EPOCH":19246,"BSTAR":0.00013414,"MEAN_MOTION_DOT":6.5e-7,"MEAN_MOTION_DDOT":0},{"OBJECT_NAME":"ONEWEB-0391","OBJECT_ID":"2021-132C","EPOCH":"2025-12-04T15:41:12.806016","MEAN_MOTION":13.17648946,"ECCENTRICITY":0.0001116,"INCLINATION":87.9115,"RA_OF_ASC_NODE":44.5664,"ARG_OF_PERICENTER":129.1336,"MEAN_ANOMALY":230.9895,"EPHEMERIS_TYPE":0,"CLASSIFICATION_TYPE":"U","NORAD_CAT_ID":50471,"ELEMENT_SET_NO":999,"REV_AT_EPOCH":19246,"BSTAR":0.00010717,"MEAN_MOTION_DOT":5.4e-7,"MEAN_MOTION_DDOT":0},{"OBJECT_NAME":"ONEWEB-0392","OBJECT_ID":"2021-132D","EPOCH":"2025-12-04T16:24:57.301056","MEAN_MOTION":13.17647763,"ECCENTRICITY":0.0001537,"INCLINATION":87.9126,"RA_OF_ASC_NODE":44.5115,"ARG_OF_PERICENTER":113.4704,"MEAN_ANOMALY":246.6589,"EPHEMERIS_TYPE":0,"CLASSIFICATION_TYPE":"U","NORAD_CAT_ID":50472,"ELEMENT_SET_NO":999,"REV_AT_EPOCH":19250,"BSTAR":7.3439e-5,"MEAN_MOTION_DOT":4.1e-7,"MEAN_MOTION_DDOT":0},{"OBJECT_NAME":"ONEWEB-0393","OBJECT_ID":"2021-132E","EPOCH":"2025-12-04T15:46:15.777120","MEAN_MOTION":13.17647924,"ECCENTRICITY":0.0001601,"INCLINATION":87.9127,"RA_OF_ASC_NODE":44.5391,"ARG_OF_PERICENTER":107.1586,"MEAN_ANOMALY":252.9721,"EPHEMERIS_TYPE":0,"CLASSIFICATION_TYPE":"U","NORAD_CAT_ID":50473,"ELEMENT_SET_NO":999,"REV_AT_EPOCH":19249,"BSTAR":0.00015307,"MEAN_MOTION_DOT":7.2e-7,"MEAN_MOTION_DDOT":0},{"OBJECT_NAME":"ONEWEB-0394","OBJECT_ID":"2021-132F","EPOCH":"2025-12-04T15:01:58.539072","MEAN_MOTION":13.18685439,"ECCENTRICITY":0.0001733,"INCLINATION":87.9189,"RA_OF_ASC_NODE":14.0815,"ARG_OF_PERICENTER":101.6613,"MEAN_ANOMALY":258.4713,"EPHEMERIS_TYPE":0,"CLASSIFICATION_TYPE":"U","NORAD_CAT_ID":50474,"ELEMENT_SET_NO":999,"REV_AT_EPOCH":19595,"BSTAR":1.3674e-5,"MEAN_MOTION_DOT":1.8e-7,"MEAN_MOTION_DDOT":0}]
